{"type": "FeatureCollection", "features": [ {"type": "Feature", "properties": {"norad_id": 60989, "name": "SENTINEL-2C", "group": "resource", "lat": -37.00272753571372, "lon": 79.24506140723415, "alt_km": 796.0793228462608, "timestamp": "2025-12-26T10:30:49.917331+00:00", "meta": {"OBJECT_NAME": "SENTINEL-2C", "OBJECT_ID": "2024-157A", "EPOCH": "2025-12-26T03:58:31.725408", "MEAN_MOTION": 14.30818046, "ECCENTRICITY": 0.0001387, "INCLINATION": 98.5666, "RA_OF_ASC_NODE": 72.4538, "ARG_OF_PERICENTER": 102.8528, "MEAN_ANOMALY": 257.2809, "EPHEMERIS_TYPE": 0, "CLASSIFICATION_TYPE": "U", "NORAD_CAT_ID": 60989, "ELEMENT_SET_NO": 999, "REV_AT_EPOCH": 6824, "BSTAR": 0.00010054, "MEAN_MOTION_DOT": 2.2e-06, "MEAN_MOTION_DDOT": 0}, "tle": {"line1": "1 60989U 24157A   25360.16564497  .00000220  00000+0  10054-3 0  9995", "line2": "2 60989  98.5666  72.4538 0001387 102.8528 257.2809 14.30818046 68246"}}, "geometry": {"type": "Point", "coordinates": [79.24506140723415, -37.00272753571372]}}, {"type": "Feature", "properties": {"norad_id": 61735, "name": "IONOSFERA-M 1", "group": "resource", "lat": -10.129854413163947, "lon": 48.605582434263816, "alt_km": 820.5275896447038, "timestamp": "2025-12-26T10:30:49.917344+00:00", "meta": {"OBJECT_NAME": "IONOSFERA-M 1", "OBJECT_ID": "2024-199A", "EPOCH": "2025-12-26T04:33:33.774336", "MEAN_MOTION": 14.2271696, "ECCENTRICITY": 2.94e-05, "INCLINATION": 98.7396, "RA_OF_ASC_NODE": 229.9344, "ARG_OF_PERICENTER": 4.4693, "MEAN_ANOMALY": 355.6487, "EPHEMERIS_TYPE": 0, "CLASSIFICATION_TYPE": "U", "NORAD_CAT_ID": 61735, "ELEMENT_SET_NO": 999, "REV_AT_EPOCH": 10310, "BSTAR": 4.4443e-05, "MEAN_MOTION_DOT": 5.5e-07, "MEAN_MOTION_DDOT": 0}, "tle": {"line1": "1 61735U 24199A   25360.18997424  .00000055  00000+0  44443-4 0  9999", "line2": "2 61735  98.7396 229.9344 0000294   4.4693 355.6487 14.22716960103101"}}, "geometry": {"type": "Point", "coordinates": [48.605582434263816, -10.129854413163947]}}, {"type": "Feature", "properties": {"norad_id": 61736, "name": "IONOSFERA-M 2", "group": "resource", "lat": 12.61869724258391, "lon": -131.8806764705946, "alt_km": 817.0639834244894, "timestamp": "2025-12-26T10:30:49.917355+00:00", "meta": {"OBJECT_NAME": "IONOSFERA-M 2", "OBJECT_ID": "2024-199B", "EPOCH": "2025-12-26T03:42:09.251136", "MEAN_MOTION": 14.22719114, "ECCENTRICITY": 0.0001873, "INCLINATION": 98.7394, "RA_OF_ASC_NODE": 229.8113, "ARG_OF_PERICENTER": 93.2609, "MEAN_ANOMALY": 266.8783, "EPHEMERIS_TYPE": 0, "CLASSIFICATION_TYPE": "U", "NORAD_CAT_ID": 61736, "ELEMENT_SET_NO": 999, "REV_AT_EPOCH": 10622, "BSTAR": 4.6056e-05, "MEAN_MOTION_DOT": 5.9e-07, "MEAN_MOTION_DDOT": 0}, "tle": {"line1": "1 61736U 24199B   25360.15427374  .00000059  00000+0  46056-4 0  9995", "line2": "2 61736  98.7394 229.8113 0001873  93.2609 266.8783 14.22719114106222"}}, "geometry": {"type": "Point", "coordinates": [-131.8806764705946, 12.61869724258391]}}, {"type": "Feature", "properties": {"norad_id": 63772, "name": "BIOMASS", "group": "resource", "lat": -69.98860057415268, "lon": -17.67916525826587, "alt_km": 676.9311166369544, "timestamp": "2025-12-26T10:30:49.917365+00:00", "meta": {"OBJECT_NAME": "BIOMASS", "OBJECT_ID": "2025-090A", "EPOCH": "2025-12-26T02:49:31.508256", "MEAN_MOTION": 14.67540449, "ECCENTRICITY": 0.0001052, "INCLINATION": 98.0697, "RA_OF_ASC_NODE": 184.9324, "ARG_OF_PERICENTER": 84.6676, "MEAN_ANOMALY": 275.4649, "EPHEMERIS_TYPE": 0, "CLASSIFICATION_TYPE": "U", "NORAD_CAT_ID": 63772, "ELEMENT_SET_NO": 999, "REV_AT_EPOCH": 3530, "BSTAR": 0.00023089, "MEAN_MOTION_DOT": 1.262e-05, "MEAN_MOTION_DDOT": 0}, "tle": {"line1": "1 63772U 25090A   25360.11772579  .00001262  00000+0  23089-3 0  9991", "line2": "2 63772  98.0697 184.9324 0001052  84.6676 275.4649 14.67540449 35304"}}, "geometry": {"type": "Point", "coordinates": [-17.67916525826587, -69.98860057415268]}}, {"type": "Feature", "properties": {"norad_id": 64694, "name": "GOSAT-GW (IBUKI GW)", "group": "resource", "lat": 75.27780008573923, "lon": 148.2650658319006, "alt_km": 660.7673907200606, "timestamp": "2025-12-26T10:30:49.917376+00:00", "meta": {"OBJECT_NAME": "GOSAT-GW (IBUKI GW)", "OBJECT_ID": "2025-141A", "EPOCH": "2025-12-26T03:30:14.138208", "MEAN_MOTION": 14.67561542, "ECCENTRICITY": 0.0001427, "INCLINATION": 98.044, "RA_OF_ASC_NODE": 295.4168, "ARG_OF_PERICENTER": 82.3875, "MEAN_ANOMALY": 277.7492, "EPHEMERIS_TYPE": 0, "CLASSIFICATION_TYPE": "U", "NORAD_CAT_ID": 64694, "ELEMENT_SET_NO": 999, "REV_AT_EPOCH": 2646, "BSTAR": 0.00018536, "MEAN_MOTION_DOT": 1.004e-05, "MEAN_MOTION_DDOT": 0}, "tle": {"line1": "1 64694U 25141A   25360.14599697  .00001004  00000+0  18536-3 0  9998", "line2": "2 64694  98.0440 295.4168 0001427  82.3875 277.7492 14.67561542 26465"}}, "geometry": {"type": "Point", "coordinates": [148.2650658319006, 75.27780008573923]}}, {"type": "Feature", "properties": {"norad_id": 64876, "name": "IONOSFERA-M 3", "group": "resource", "lat": -5.888018122259027, "lon": -37.19017586092086, "alt_km": 823.1827955617237, "timestamp": "2025-12-26T10:30:49.917386+00:00", "meta": {"OBJECT_NAME": "IONOSFERA-M 3", "OBJECT_ID": "2025-155A", "EPOCH": "2025-12-26T03:47:03.408576", "MEAN_MOTION": 14.21444231, "ECCENTRICITY": 0.0001807, "INCLINATION": 98.5801, "RA_OF_ASC_NODE": 321.6452, "ARG_OF_PERICENTER": 38.3682, "MEAN_ANOMALY": 321.7624, "EPHEMERIS_TYPE": 0, "CLASSIFICATION_TYPE": "U", "NORAD_CAT_ID": 64876, "ELEMENT_SET_NO": 999, "REV_AT_EPOCH": 2182, "BSTAR": 6.0795e-05, "MEAN_MOTION_DOT": 9e-07, "MEAN_MOTION_DDOT": 0}, "tle": {"line1": "1 64876U 25155A   25360.15767834  .00000090  00000+0  60795-4 0  9995", "line2": "2 64876  98.5801 321.6452 0001807  38.3682 321.7624 14.21444231 21827"}}, "geometry": {"type": "Point", "coordinates": [-37.19017586092086, -5.888018122259027]}}, {"type": "Feature", "properties": {"norad_id": 64877, "name": "IONOSFERA-M 4", "group": "resource", "lat": 4.925584820146527, "lon": 142.5825436002775, "alt_km": 823.23490712087, "timestamp": "2025-12-26T10:30:49.917396+00:00", "meta": {"OBJECT_NAME": "IONOSFERA-M 4", "OBJECT_ID": "2025-155B", "EPOCH": "2025-12-26T04:37:32.240064", "MEAN_MOTION": 14.2144537, "ECCENTRICITY": 0.000125, "INCLINATION": 98.5802, "RA_OF_ASC_NODE": 321.5986, "ARG_OF_PERICENTER": 51.0399, "MEAN_ANOMALY": 309.089, "EPHEMERIS_TYPE": 0, "CLASSIFICATION_TYPE": "U", "NORAD_CAT_ID": 64877, "ELEMENT_SET_NO": 999, "REV_AT_EPOCH": 2182, "BSTAR": 5.8514e-05, "MEAN_MOTION_DOT": 8.5e-07, "MEAN_MOTION_DDOT": 0}, "tle": {"line1": "1 64877U 25155B   25360.19273426  .00000085  00000+0  58514-4 0  9999", "line2": "2 64877  98.5802 321.5986 0001250  51.0399 309.0890 14.21445370 21828"}}, "geometry": {"type": "Point", "coordinates": [142.5825436002775, 4.925584820146527]}}, {"type": "Feature", "properties": {"norad_id": 64899, "name": "MICROCARB", "group": "resource", "lat": -57.357306434093545, "lon": 88.24672022520703, "alt_km": 673.3406992523087, "timestamp": "2025-12-26T10:30:49.917406+00:00", "meta": {"OBJECT_NAME": "MICROCARB", "OBJECT_ID": "2025-156A", "EPOCH": "2025-12-26T04:15:11.979072", "MEAN_MOTION": 14.72078134, "ECCENTRICITY": 0.0017662, "INCLINATION": 98.0009, "RA_OF_ASC_NODE": 75.3064, "ARG_OF_PERICENTER": 104.5571, "MEAN_ANOMALY": 255.7596, "EPHEMERIS_TYPE": 0, "CLASSIFICATION_TYPE": "U", "NORAD_CAT_ID": 64899, "ELEMENT_SET_NO": 999, "REV_AT_EPOCH": 2251, "BSTAR": 0.00011937, "MEAN_MOTION_DOT": 7.02e-06, "MEAN_MOTION_DDOT": 0}, "tle": {"line1": "1 64899U 25156A   25360.17722198  .00000702  00000+0  11937-3 0  9990", "line2": "2 64899  98.0009  75.3064 0017662 104.5571 255.7596 14.72078134 22510"}}, "geometry": {"type": "Point", "coordinates": [88.24672022520703, -57.357306434093545]}}, {"type": "Feature", "properties": {"norad_id": 64900, "name": "CO3D 3", "group": "resource", "lat": -12.970280163869516, "lon": -105.11435724048415, "alt_km": 510.43276031272853, "timestamp": "2025-12-26T10:30:49.917416+00:00", "meta": {"OBJECT_NAME": "CO3D 3", "OBJECT_ID": "2025-156B", "EPOCH": "2025-12-26T04:55:42.693600", "MEAN_MOTION": 15.20197634, "ECCENTRICITY": 0.0001336, "INCLINATION": 97.4344, "RA_OF_ASC_NODE": 76.3797, "ARG_OF_PERICENTER": 64.5941, "MEAN_ANOMALY": 295.5433, "EPHEMERIS_TYPE": 0, "CLASSIFICATION_TYPE": "U", "NORAD_CAT_ID": 64900, "ELEMENT_SET_NO": 999, "REV_AT_EPOCH": 2325, "BSTAR": 1.8193e-05, "MEAN_MOTION_DOT": 3.26e-06, "MEAN_MOTION_DDOT": 0}, "tle": {"line1": "1 64900U 25156B   25360.20535525  .00000326  00000+0  18193-4 0  9997", "line2": "2 64900  97.4344  76.3797 0001336  64.5941 295.5433 15.20197634 23254"}}, "geometry": {"type": "Point", "coordinates": [-105.11435724048415, -12.970280163869516]}}, {"type": "Feature", "properties": {"norad_id": 64901, "name": "CO3D 4", "group": "resource", "lat": -12.114655199484169, "lon": -104.99730032762143, "alt_km": 509.0888550759, "timestamp": "2025-12-26T10:30:49.917426+00:00", "meta": {"OBJECT_NAME": "CO3D 4", "OBJECT_ID": "2025-156C", "EPOCH": "2025-12-26T03:21:09.043200", "MEAN_MOTION": 15.20191705, "ECCENTRICITY": 0.0001369, "INCLINATION": 97.4337, "RA_OF_ASC_NODE": 76.3146, "ARG_OF_PERICENTER": 149.5803, "MEAN_ANOMALY": 210.5511, "EPHEMERIS_TYPE": 0, "CLASSIFICATION_TYPE": "U", "NORAD_CAT_ID": 64901, "ELEMENT_SET_NO": 999, "REV_AT_EPOCH": 2324, "BSTAR": 0.00022855, "MEAN_MOTION_DOT": 4.882e-05, "MEAN_MOTION_DDOT": 0}, "tle": {"line1": "1 64901U 25156C   25360.13968800  .00004882  00000+0  22855-3 0  9996", "line2": "2 64901  97.4337  76.3146 0001369 149.5803 210.5511 15.20191705 23248"}}, "geometry": {"type": "Point", "coordinates": [-104.99730032762143, -12.114655199484169]}}]}